CCSDS_OMM_VERS = 2.0
CREATION_DATE  = 
ORIGINATOR     = 

OBJECT_NAME    = CZ-2C R/B
OBJECT_ID      = 2022-132E
CENTER_NAME    = EARTH
REF_FRAME      = TEME
TIME_SYSTEM    = UTC
MEAN_ELEMENT_THEORY = SGP/SGP4

EPOCH          = 2026-01-07T23:29:30.316704
MEAN_MOTION    = 15.56742561
ECCENTRICITY   = .00180428
INCLINATION    = 97.2949
RA_OF_ASC_NODE = 9.7132
ARG_OF_PERICENTER = 322.4781
MEAN_ANOMALY   = 37.5214

EPHEMERIS_TYPE = 0
CLASSIFICATION_TYPE = U
NORAD_CAT_ID   = 54039
ELEMENT_SET_NO = 999
REV_AT_EPOCH   = 18091
BSTAR          = .47114113E-3
MEAN_MOTION_DOT = .33908E-3
MEAN_MOTION_DDOT = 0

CCSDS_OMM_VERS = 2.0
CREATION_DATE  = 
ORIGINATOR     = 

OBJECT_NAME    = GSLV R/B
OBJECT_ID      = 2022-138AN
CENTER_NAME    = EARTH
REF_FRAME      = TEME
TIME_SYSTEM    = UTC
MEAN_ELEMENT_THEORY = SGP/SGP4

EPOCH          = 2026-01-07T22:32:32.732736
MEAN_MOTION    = 14.96297556
ECCENTRICITY   = .00224521
INCLINATION    = 87.3827
RA_OF_ASC_NODE = 186.6982
ARG_OF_PERICENTER = 18.4948
MEAN_ANOMALY   = 341.7094

EPHEMERIS_TYPE = 0
CLASSIFICATION_TYPE = U
NORAD_CAT_ID   = 54149
ELEMENT_SET_NO = 999
REV_AT_EPOCH   = 17484
BSTAR          = .19688971E-3
MEAN_MOTION_DOT = .2263E-4
MEAN_MOTION_DDOT = 0

CCSDS_OMM_VERS = 2.0
CREATION_DATE  = 
ORIGINATOR     = 

OBJECT_NAME    = XRISM
OBJECT_ID      = 2023-137A
CENTER_NAME    = EARTH
REF_FRAME      = TEME
TIME_SYSTEM    = UTC
MEAN_ELEMENT_THEORY = SGP/SGP4

EPOCH          = 2026-01-07T12:57:24.374880
MEAN_MOTION    = 15.10694094
ECCENTRICITY   = .00077701
INCLINATION    = 31.0032
RA_OF_ASC_NODE = 318.9334
ARG_OF_PERICENTER = 147.9599
MEAN_ANOMALY   = 212.1513

EPHEMERIS_TYPE = 0
CLASSIFICATION_TYPE = U
NORAD_CAT_ID   = 57800
ELEMENT_SET_NO = 999
REV_AT_EPOCH   = 12853
BSTAR          = .34292362E-3
MEAN_MOTION_DOT = .5919E-4
MEAN_MOTION_DDOT = 0

CCSDS_OMM_VERS = 2.0
CREATION_DATE  = 
ORIGINATOR     = 

OBJECT_NAME    = ACS3
OBJECT_ID      = 2024-077B
CENTER_NAME    = EARTH
REF_FRAME      = TEME
TIME_SYSTEM    = UTC
MEAN_ELEMENT_THEORY = SGP/SGP4

EPOCH          = 2026-01-07T21:12:58.625568
MEAN_MOTION    = 13.86902051
ECCENTRICITY   = .00656095
INCLINATION    = 97.2483
RA_OF_ASC_NODE = 322.6481
ARG_OF_PERICENTER = 272.5706
MEAN_ANOMALY   = 86.7947

EPHEMERIS_TYPE = 0
CLASSIFICATION_TYPE = U
NORAD_CAT_ID   = 59588
ELEMENT_SET_NO = 999
REV_AT_EPOCH   = 8576
BSTAR          = .10541436E-1
MEAN_MOTION_DOT = .12515E-3
MEAN_MOTION_DDOT = 0

CCSDS_OMM_VERS = 2.0
CREATION_DATE  = 
ORIGINATOR     = 

OBJECT_NAME    = SZ-21 MODULE
OBJECT_ID      = 2025-246C
CENTER_NAME    = EARTH
REF_FRAME      = TEME
TIME_SYSTEM    = UTC
MEAN_ELEMENT_THEORY = SGP/SGP4

EPOCH          = 2026-01-07T20:39:08.061408
MEAN_MOTION    = 15.64106684
ECCENTRICITY   = .00014946
INCLINATION    = 41.4742
RA_OF_ASC_NODE = 216.5245
ARG_OF_PERICENTER = 84.1343
MEAN_ANOMALY   = 275.9668

EPHEMERIS_TYPE = 0
CLASSIFICATION_TYPE = U
NORAD_CAT_ID   = 66515
ELEMENT_SET_NO = 999
REV_AT_EPOCH   = 853
BSTAR          = .26191796E-3
MEAN_MOTION_DOT = .25291E-3
MEAN_MOTION_DDOT = 0

